{
    "CCSDS_OMM_VERS": "3.0",
    "COMMENT": "GENERATED VIA SPACE-TRACK.ORG API",
    "CREATION_DATE": "2025-05-23T14:46:20",
    "ORIGINATOR": "18 SPCS",
    "OBJECT_NAME": "BEIDOU 3M13",
    "OBJECT_ID": "2018-072A",
    "CENTER_NAME": "EARTH",
    "REF_FRAME": "TEME",
    "TIME_SYSTEM": "UTC",
    "MEAN_ELEMENT_THEORY": "SGP4",
    "EPOCH": "2025-05-23T04:04:20.285472",
    "MEAN_MOTION": "1.86231285",
    "ECCENTRICITY": "0.00080440",
    "INCLINATION": "56.2804",
    "RA_OF_ASC_NODE": "75.5650",
    "ARG_OF_PERICENTER": "316.6929",
    "MEAN_ANOMALY": "43.2222",
    "EPHEMERIS_TYPE": "0",
    "CLASSIFICATION_TYPE": "U",
    "NORAD_CAT_ID": "43622",
    "ELEMENT_SET_NO": "999",
    "REV_AT_EPOCH": "4539",
    "BSTAR": "0.00000000000000",
    "MEAN_MOTION_DOT": "-0.00000028",
    "MEAN_MOTION_DDOT": "0.0000000000000",
    "SEMIMAJOR_AXIS": "27906.160",
    "PERIOD": "773.232",
    "APOAPSIS": "21550.473",
    "PERIAPSIS": "21505.577",
    "OBJECT_TYPE": "PAYLOAD",
    "RCS_SIZE": "LARGE",
    "COUNTRY_CODE": "PRC",
    "LAUNCH_DATE": "2018-09-19",
    "SITE": "XSC",
    "DECAY_DATE": null,
    "FILE": "4736976",
    "GP_ID": "288176063",
    "TLE_LINE0": "0 BEIDOU 3M13",
    "TLE_LINE1": "1 43622U 18072A   25143.16967923 -.00000028  00000-0  00000+0 0  9993",
    "TLE_LINE2": "2 43622  56.2804  75.5650 0008044 316.6929  43.2222  1.86231285 45396"
}